[{"OBJECT_NAME":"STARLINK-5002","OBJECT_ID":"2022-119AN","EPOCH":"2026-03-09T22:09:08.576352","MEAN_MOTION":15.08857317,"ECCENTRICITY":0.00010895,"INCLINATION":53.2182,"RA_OF_ASC_NODE":312.8242,"ARG_OF_PERICENTER":73.3966,"MEAN_ANOMALY":286.7145,"EPHEMERIS_TYPE":0,"CLASSIFICATION_TYPE":"U","NORAD_CAT_ID":53922,"ELEMENT_SET_NO":999,"REV_AT_EPOCH":19186,"BSTAR":0.00014109006,"MEAN_MOTION_DOT":1.959e-5,"MEAN_MOTION_DDOT":0},{"OBJECT_NAME":"DELTA 1 DEB","OBJECT_ID":"1972-058BG","EPOCH":"2026-03-09T20:01:49.581696","MEAN_MOTION":14.88535429,"ECCENTRICITY":0.00965988,"INCLINATION":98.8237,"RA_OF_ASC_NODE":167.9558,"ARG_OF_PERICENTER":346.289,"MEAN_ANOMALY":13.5703,"EPHEMERIS_TYPE":0,"CLASSIFICATION_TYPE":"U","NORAD_CAT_ID":7890,"ELEMENT_SET_NO":999,"REV_AT_EPOCH":62566,"BSTAR":0.0011014398,"MEAN_MOTION_DOT":0.00011112,"MEAN_MOTION_DDOT":0}]
